{
"parks" : [
 {
   "PARK NAME": "LINCOLN (ABRAHAM)",
   "STREET ADDRESS": "200 W FULLERTON PKWY",
   "ZIP": 60614,
   "NUMBER OF COURTS": 30,
   "LATITUDE": 41.9223,
   "LONGITUDE": -87.65133
 },
 {
   "PARK NAME": "GRANT (ULYSSES)",
   "STREET ADDRESS": "331 E RANDOLPH ST",
   "ZIP": 60605,
   "NUMBER OF COURTS": 18,
   "LATITUDE": 41.86725,
   "LONGITUDE": -87.62088
 },
 {
   "PARK NAME": "CALUMET",
   "STREET ADDRESS": "9801 S AVENUE G",
   "ZIP": 60617,
   "NUMBER OF COURTS": 16,
   "LATITUDE": 41.71779645,
   "LONGITUDE": -87.53153189
 },
 {
   "PARK NAME": "MARQUETTE (JACQUES)",
   "STREET ADDRESS": "6734 S KEDZIE AVE",
   "ZIP": 60629,
   "NUMBER OF COURTS": 16,
   "LATITUDE": 41.77145233,
   "LONGITUDE": -87.70305178
 },
 {
   "PARK NAME": "TULEY (MURRAY)",
   "STREET ADDRESS": "501 E 90TH PL",
   "ZIP": 60619,
   "NUMBER OF COURTS": 13,
   "LATITUDE": 41.73041579,
   "LONGITUDE": -87.61190765
 },
 {
   "PARK NAME": "RAINBOW BEACH",
   "STREET ADDRESS": "2873 E 75TH ST",
   "ZIP": 60649,
   "NUMBER OF COURTS": 12,
   "LATITUDE": 41.76149,
   "LONGITUDE": -87.56872
 },
 {
   "PARK NAME": "RIIS (JACOB)",
   "STREET ADDRESS": "6100 W FULLERTON AVE",
   "ZIP": 60639,
   "NUMBER OF COURTS": 10,
   "LATITUDE": 41.92386789,
   "LONGITUDE": -87.77820283
 },
 {
   "PARK NAME": "WASHINGTON (GEORGE)",
   "STREET ADDRESS": "5531 S DR MARTIN LUTHER KING J",
   "ZIP": 60637,
   "NUMBER OF COURTS": 10,
   "LATITUDE": 41.78083,
   "LONGITUDE": -87.60191
 },
 {
   "PARK NAME": "MCKINLEY (WILLIAM)",
   "STREET ADDRESS": "2210 W PERSHING RD",
   "ZIP": 60609,
   "NUMBER OF COURTS": 10,
   "LATITUDE": 41.82310474,
   "LONGITUDE": -87.68047138
 },
 {
   "PARK NAME": "PALMER (POTTER)",
   "STREET ADDRESS": "200 E 111TH ST",
   "ZIP": 60628,
   "NUMBER OF COURTS": 9,
   "LATITUDE": 41.69271709,
   "LONGITUDE": -87.61818119
 },
 {
   "PARK NAME": "HUMBOLDT (BARON VON)",
   "STREET ADDRESS": "1400 N HUMBOLDT DR",
   "ZIP": 60622,
   "NUMBER OF COURTS": 8,
   "LATITUDE": 41.90669362,
   "LONGITUDE": -87.70141312
 },
 {
   "PARK NAME": "GAGE (GEORGE)",
   "STREET ADDRESS": "2415 W 55TH ST",
   "ZIP": 60629,
   "NUMBER OF COURTS": 8,
   "LATITUDE": 41.77413,
   "LONGITUDE": -87.71231
 },
 {
   "PARK NAME": "WASHINGTON (HAROLD)",
   "STREET ADDRESS": "5200 S HYDE PARK BLVD",
   "ZIP": 60615,
   "NUMBER OF COURTS": 8,
   "LATITUDE": 41.80104561,
   "LONGITUDE": -87.58465923
 },
 {
   "PARK NAME": "HAMILTON (ALEXANDER)",
   "STREET ADDRESS": "513 W 72ND ST",
   "ZIP": 60621,
   "NUMBER OF COURTS": 8,
   "LATITUDE": 41.76343475,
   "LONGITUDE": -87.63746326
 },
 {
   "PARK NAME": "FOSTER (J. FRANK)",
   "STREET ADDRESS": "1400 W 84TH ST",
   "ZIP": 60620,
   "NUMBER OF COURTS": 8,
   "LATITUDE": 41.74139826,
   "LONGITUDE": -87.65763213
 },
 {
   "PARK NAME": "HORNER (HENRY)",
   "STREET ADDRESS": "2741 W MONTROSE AVE",
   "ZIP": 60618,
   "NUMBER OF COURTS": 6,
   "LATITUDE": 41.96121642,
   "LONGITUDE": -87.69763589
 },
 {
   "PARK NAME": "PORTAGE",
   "STREET ADDRESS": "4100 N LONG AVE",
   "ZIP": 60641,
   "NUMBER OF COURTS": 6,
   "LATITUDE": 41.95506808,
   "LONGITUDE": -87.76219208
 },
 {
   "PARK NAME": "MATHER (STEPHEN TYNG)",
   "STREET ADDRESS": "5835 N LINCOLN AVE",
   "ZIP": 60659,
   "NUMBER OF COURTS": 6,
   "LATITUDE": 41.98749492,
   "LONGITUDE": -87.70239062
 },
 {
   "PARK NAME": "WARREN (LAURENCE)",
   "STREET ADDRESS": "6621 N WESTERN AVE",
   "ZIP": 60645,
   "NUMBER OF COURTS": 6,
   "LATITUDE": 42.00190319,
   "LONGITUDE": -87.68991554
 },
 {
   "PARK NAME": "GARFIELD (JAMES)",
   "STREET ADDRESS": "100 N CENTRAL PARK DR",
   "ZIP": 60624,
   "NUMBER OF COURTS": 6,
   "LATITUDE": 41.88154784,
   "LONGITUDE": -87.71591722
 },
 {
   "PARK NAME": "COLUMBUS (CHRISTOPHER)",
   "STREET ADDRESS": "500 S CENTRAL AVE",
   "ZIP": 60644,
   "NUMBER OF COURTS": 6,
   "LATITUDE": 41.87377153,
   "LONGITUDE": -87.7647084
 },
 {
   "PARK NAME": "DUNBAR (PAUL LAURENCE)",
   "STREET ADDRESS": "200 E 31ST ST",
   "ZIP": 60616,
   "NUMBER OF COURTS": 6,
   "LATITUDE": 41.83843398,
   "LONGITUDE": -87.62185872
 },
 {
   "PARK NAME": "GRAND CROSSING",
   "STREET ADDRESS": "7655 S INGLESIDE AVE",
   "ZIP": 60619,
   "NUMBER OF COURTS": 6,
   "LATITUDE": 41.75576119,
   "LONGITUDE": -87.60157758
 },
 {
   "PARK NAME": "AVALON",
   "STREET ADDRESS": "1215 E 83RD ST",
   "ZIP": 60619,
   "NUMBER OF COURTS": 6,
   "LATITUDE": 41.74403865,
   "LONGITUDE": -87.59470765
 },
 {
   "PARK NAME": "OWENS (JESSE)",
   "STREET ADDRESS": "2100 E 88TH ST",
   "ZIP": 60617,
   "NUMBER OF COURTS": 6,
   "LATITUDE": 41.73529175,
   "LONGITUDE": -87.57318387
 },
 {
   "PARK NAME": "WEST PULLMAN",
   "STREET ADDRESS": "400 W 123RD ST",
   "ZIP": 60628,
   "NUMBER OF COURTS": 5,
   "LATITUDE": 41.67069217,
   "LONGITUDE": -87.63205454
 },
 {
   "PARK NAME": "BLACKHAWK",
   "STREET ADDRESS": "2318 N LAVERGNE AVE",
   "ZIP": 60639,
   "NUMBER OF COURTS": 5,
   "LATITUDE": 41.922696,
   "LONGITUDE": -87.75124729
 },
 {
   "PARK NAME": "FIELD (EUGENE)",
   "STREET ADDRESS": "5100 N RIDGEWAY AVE",
   "ZIP": 60625,
   "NUMBER OF COURTS": 5,
   "LATITUDE": 41.97296094,
   "LONGITUDE": -87.72208215
 },
 {
   "PARK NAME": "RIVER",
   "STREET ADDRESS": "5100 N FRANCISCO AVE",
   "ZIP": 60625,
   "NUMBER OF COURTS": 5,
   "LATITUDE": 41.97397703,
   "LONGITUDE": -87.70134422
 },
 {
   "PARK NAME": "GOMPERS (SAMUEL)",
   "STREET ADDRESS": "4222 W FOSTER AVE",
   "ZIP": 60630,
   "NUMBER OF COURTS": 5,
   "LATITUDE": 41.97552292,
   "LONGITUDE": -87.73484283
 },
 {
   "PARK NAME": "CURIE (MARIE)",
   "STREET ADDRESS": "4959 S ARCHER AVE",
   "ZIP": 60632,
   "NUMBER OF COURTS": 5,
   "LATITUDE": 41.80306963,
   "LONGITUDE": -87.72209263
 },
 {
   "PARK NAME": "SHABBONA",
   "STREET ADDRESS": "6935 W ADDISON",
   "ZIP": 60634,
   "NUMBER OF COURTS": 5,
   "LATITUDE": 41.94534958,
   "LONGITUDE": -87.79940651
 },
 {
   "PARK NAME": "MCGUANE (JOHN)",
   "STREET ADDRESS": "2901 S POPLAR AVE",
   "ZIP": 60608,
   "NUMBER OF COURTS": 5,
   "LATITUDE": 41.84136701,
   "LONGITUDE": -87.64959693
 },
 {
   "PARK NAME": "MOUNT GREENWOOD",
   "STREET ADDRESS": "3724 W 111TH ST",
   "ZIP": 60655,
   "NUMBER OF COURTS": 4,
   "LATITUDE": 41.69141451,
   "LONGITUDE": -87.71368391
 },
 {
   "PARK NAME": "ADA (SAWYER GARRETT)",
   "STREET ADDRESS": "11250 S ADA ST",
   "ZIP": 60643,
   "NUMBER OF COURTS": 4,
   "LATITUDE": 41.68712425,
   "LONGITUDE": -87.65566117
 },
 {
   "PARK NAME": "KENNEDY (DENNIS)",
   "STREET ADDRESS": "11320 S WESTERN AVE",
   "ZIP": 60655,
   "NUMBER OF COURTS": 4,
   "LATITUDE": 41.69414,
   "LONGITUDE": -87.70329
 },
 {
   "PARK NAME": "MANN (JAMES)",
   "STREET ADDRESS": "3035 E 130TH ST",
   "ZIP": 60633,
   "NUMBER OF COURTS": 4,
   "LATITUDE": 41.65913188,
   "LONGITUDE": -87.5494458
 },
 {
   "PARK NAME": "REVERE (PAUL)",
   "STREET ADDRESS": "2509 W IRVING PARK RD",
   "ZIP": 60618,
   "NUMBER OF COURTS": 4,
   "LATITUDE": 41.95393191,
   "LONGITUDE": -87.69122573
 },
 {
   "PARK NAME": "INDEPENDENCE",
   "STREET ADDRESS": "3945 N SPRINGFIELD AVE",
   "ZIP": 60618,
   "NUMBER OF COURTS": 4,
   "LATITUDE": 41.95265061,
   "LONGITUDE": -87.72498261
 },
 {
   "PARK NAME": "BESSEMER (HENRY)",
   "STREET ADDRESS": "8930 S MUSKEGON AVE",
   "ZIP": 60617,
   "NUMBER OF COURTS": 4,
   "LATITUDE": 41.73310769,
   "LONGITUDE": -87.5555505
 },
 {
   "PARK NAME": "KILBOURN",
   "STREET ADDRESS": "3501 N KILBOURN AVE",
   "ZIP": 60641,
   "NUMBER OF COURTS": 4,
   "LATITUDE": 41.94441193,
   "LONGITUDE": -87.73957059
 },
 {
   "PARK NAME": "CHOPIN (FREDERIC)",
   "STREET ADDRESS": "3420 N LONG AVE",
   "ZIP": 60641,
   "NUMBER OF COURTS": 4,
   "LATITUDE": 41.94266496,
   "LONGITUDE": -87.7617926
 },
 {
   "PARK NAME": "OZ",
   "STREET ADDRESS": "2021 N BURLING ST",
   "ZIP": 60614,
   "NUMBER OF COURTS": 4,
   "LATITUDE": 41.91895352,
   "LONGITUDE": -87.64716335
 },
 {
   "PARK NAME": "ROGERS (PHILLIP)",
   "STREET ADDRESS": "7345 N WASHTENAW AVE",
   "ZIP": 60645,
   "NUMBER OF COURTS": 4,
   "LATITUDE": 42.01502332,
   "LONGITUDE": -87.69722503
 },
 {
   "PARK NAME": "LOYOLA",
   "STREET ADDRESS": "1230 W GREENLEAF AVE",
   "ZIP": 60626,
   "NUMBER OF COURTS": 4,
   "LATITUDE": 42.01048498,
   "LONGITUDE": -87.66117255
 },
 {
   "PARK NAME": "INDIAN BOUNDARY",
   "STREET ADDRESS": "2500 W LUNT AVE",
   "ZIP": 60645,
   "NUMBER OF COURTS": 4,
   "LATITUDE": 42.00866638,
   "LONGITUDE": -87.6922074
 },
 {
   "PARK NAME": "PETERSON (PEHR SAMUEL)",
   "STREET ADDRESS": "5801 N PULASKI RD",
   "ZIP": 60646,
   "NUMBER OF COURTS": 4,
   "LATITUDE": 41.9858572,
   "LONGITUDE": -87.72842768
 },
 {
   "PARK NAME": "SAUGANASH",
   "STREET ADDRESS": "5861 N KOSTNER AVE",
   "ZIP": 60646,
   "NUMBER OF COURTS": 4,
   "LATITUDE": 41.98744325,
   "LONGITUDE": -87.73822536
 },
 {
   "PARK NAME": "NORWOOD",
   "STREET ADDRESS": "5801 N NATOMA AVE",
   "ZIP": 60631,
   "NUMBER OF COURTS": 4,
   "LATITUDE": 41.98655065,
   "LONGITUDE": -87.79406153
 },
 {
   "PARK NAME": "CHASE (SALMON)",
   "STREET ADDRESS": "4725 N ASHLAND AV",
   "ZIP": 60640,
   "NUMBER OF COURTS": 4,
   "LATITUDE": 41.96794833,
   "LONGITUDE": -87.66934674
 },
 {
   "PARK NAME": "WILSON (FRANK)",
   "STREET ADDRESS": "4630 N MILWAUKEE AVE",
   "ZIP": 60630,
   "NUMBER OF COURTS": 4,
   "LATITUDE": 41.96471787,
   "LONGITUDE": -87.75809563
 },
 {
   "PARK NAME": "BEVERLY",
   "STREET ADDRESS": "2460 W 102ND ST",
   "ZIP": 60655,
   "NUMBER OF COURTS": 4,
   "LATITUDE": 41.70826183,
   "LONGITUDE": -87.68319264
 },
 {
   "PARK NAME": "FERNWOOD",
   "STREET ADDRESS": "10436 S WALLACE ST",
   "ZIP": 60628,
   "NUMBER OF COURTS": 4,
   "LATITUDE": 41.704484,
   "LONGITUDE": -87.63796824
 },
 {
   "PARK NAME": "CALIFORNIA",
   "STREET ADDRESS": "3843 N CALIFORNIA AVE",
   "ZIP": 60618,
   "NUMBER OF COURTS": 4,
   "LATITUDE": 41.95111137,
   "LONGITUDE": -87.69813276
 },
 {
   "PARK NAME": "HARRISON (CARTER)",
   "STREET ADDRESS": "1824 S WOOD ST",
   "ZIP": 60608,
   "NUMBER OF COURTS": 4,
   "LATITUDE": 41.85700764,
   "LONGITUDE": -87.67112151
 },
 {
   "PARK NAME": "WENTWORTH (JOHN)",
   "STREET ADDRESS": "5625 S MOBILE AVE",
   "ZIP": 60638,
   "NUMBER OF COURTS": 4,
   "LATITUDE": 41.79046439,
   "LONGITUDE": -87.77920389
 },
 {
   "PARK NAME": "OGDEN (WILLIAM)",
   "STREET ADDRESS": "6500 S RACINE AVE",
   "ZIP": 60636,
   "NUMBER OF COURTS": 4,
   "LATITUDE": 41.7759167,
   "LONGITUDE": -87.65446998
 },
 {
   "PARK NAME": "SOUTH SHORE CULTL. CTR.",
   "STREET ADDRESS": "7059 S SOUTH SHORE DR",
   "ZIP": 60649,
   "NUMBER OF COURTS": 4,
   "LATITUDE": 41.76674596,
   "LONGITUDE": -87.56639757
 },
 {
   "PARK NAME": "BRAINERD",
   "STREET ADDRESS": "1246 W 92ND ST",
   "ZIP": 60620,
   "NUMBER OF COURTS": 3,
   "LATITUDE": 41.72683808,
   "LONGITUDE": -87.65418914
 },
 {
   "PARK NAME": "DOUGLAS (STEPHEN)",
   "STREET ADDRESS": "1401 S SACRAMENTO",
   "ZIP": 60623,
   "NUMBER OF COURTS": 3,
   "LATITUDE": 41.862427,
   "LONGITUDE": -87.70182815
 },
 {
   "PARK NAME": "BOGAN (WILLIAM)",
   "STREET ADDRESS": "3939 W 79TH ST",
   "ZIP": 60652,
   "NUMBER OF COURTS": 3,
   "LATITUDE": 41.74942665,
   "LONGITUDE": -87.72024569
 },
 {
   "PARK NAME": "OLYMPIA",
   "STREET ADDRESS": "6566 N AVONDALE AVE",
   "ZIP": 60631,
   "NUMBER OF COURTS": 3,
   "LATITUDE": 41.99967129,
   "LONGITUDE": -87.81502965
 },
 {
   "PARK NAME": "ORIOLE",
   "STREET ADDRESS": "5430 N OLCOTT AVE",
   "ZIP": 60656,
   "NUMBER OF COURTS": 3,
   "LATITUDE": 41.97975247,
   "LONGITUDE": -87.8138667
 },
 {
   "PARK NAME": "JEFFERSON (THOMAS) MEML.",
   "STREET ADDRESS": "4822 N LONG AVE",
   "ZIP": 60630,
   "NUMBER OF COURTS": 3,
   "LATITUDE": 41.96794056,
   "LONGITUDE": -87.7626576
 },
 {
   "PARK NAME": "ROOSEVELT (THEODORE)",
   "STREET ADDRESS": "62 W ROOSEVELT RD",
   "ZIP": 60605,
   "NUMBER OF COURTS": 3,
   "LATITUDE": 41.86751044,
   "LONGITUDE": -87.62930349
 },
 {
   "PARK NAME": "CORNELL (PAUL) SQUARE",
   "STREET ADDRESS": "1809 W 50TH ST",
   "ZIP": 60609,
   "NUMBER OF COURTS": 3,
   "LATITUDE": 41.80302568,
   "LONGITUDE": -87.66990816
 },
 {
   "PARK NAME": "WELLES (GIDEON)",
   "STREET ADDRESS": "2333 W SUNNYSIDE AVE",
   "ZIP": 60625,
   "NUMBER OF COURTS": 3,
   "LATITUDE": 41.96309722,
   "LONGITUDE": -87.68735443
 },
 {
   "PARK NAME": "GRAVER (PHILIP)",
   "STREET ADDRESS": "1518 W 102ND PL",
   "ZIP": 60643,
   "NUMBER OF COURTS": 3,
   "LATITUDE": 41.70734399,
   "LONGITUDE": -87.66017863
 },
 {
   "PARK NAME": "LA FOLLETTE (ROBERT)",
   "STREET ADDRESS": "1333 N LARAMIE AVE",
   "ZIP": 60651,
   "NUMBER OF COURTS": 3,
   "LATITUDE": 41.90466175,
   "LONGITUDE": -87.755741
 },
 {
   "PARK NAME": "SHERIDAN (PHILIP HENRY)",
   "STREET ADDRESS": "910 S ABERDEEN ST",
   "ZIP": 60607,
   "NUMBER OF COURTS": 3,
   "LATITUDE": 41.87017479,
   "LONGITUDE": -87.65429132
 },
 {
   "PARK NAME": "COSME (MARGARET)",
   "STREET ADDRESS": "2100 W 91ST ST",
   "ZIP": 60620,
   "NUMBER OF COURTS": 3,
   "LATITUDE": 41.83689532,
   "LONGITUDE": -87.67466317
 },
 {
   "PARK NAME": "PIOTROWSKI (LILLIAN)",
   "STREET ADDRESS": "4200 W 31ST ST",
   "ZIP": 60623,
   "NUMBER OF COURTS": 3,
   "LATITUDE": 41.83689532,
   "LONGITUDE": -87.72922974
 },
 {
   "PARK NAME": "RAINEY (EDWARD)",
   "STREET ADDRESS": "4350 W 79TH ST",
   "ZIP": 60652,
   "NUMBER OF COURTS": 3,
   "LATITUDE": 41.74947278,
   "LONGITUDE": -87.7307313
 },
 {
   "PARK NAME": "RUSSELL (MARTIN) SQUARE",
   "STREET ADDRESS": "3045 E 83RD ST",
   "ZIP": 60617,
   "NUMBER OF COURTS": 3,
   "LATITUDE": 41.7446272,
   "LONGITUDE": -87.54986486
 },
 {
   "PARK NAME": "CRESCENT",
   "STREET ADDRESS": "2230 W 108TH PL",
   "ZIP": 60643,
   "NUMBER OF COURTS": 2,
   "LATITUDE": 41.69672387,
   "LONGITUDE": -87.67763131
 },
 {
   "PARK NAME": "COOPER (JACK)",
   "STREET ADDRESS": "1332 W 117TH ST",
   "ZIP": 60643,
   "NUMBER OF COURTS": 2,
   "LATITUDE": 41.68131211,
   "LONGITUDE": -87.65549271
 },
 {
   "PARK NAME": "WHITE (EDWARD)",
   "STREET ADDRESS": "1120 W 122ND ST",
   "ZIP": 60643,
   "NUMBER OF COURTS": 2,
   "LATITUDE": 41.67228933,
   "LONGITUDE": -87.64989065
 },
 {
   "PARK NAME": "UNION",
   "STREET ADDRESS": "1501 W RANDOLPH ST",
   "ZIP": 60606,
   "NUMBER OF COURTS": 2,
   "LATITUDE": 41.88173,
   "LONGITUDE": -87.63661
 },
 {
   "PARK NAME": "METCALFE (RALPH)",
   "STREET ADDRESS": "4196 S STATE ST",
   "ZIP": 60609,
   "NUMBER OF COURTS": 2,
   "LATITUDE": 41.81831538,
   "LONGITUDE": -87.62639429
 },
 {
   "PARK NAME": "O'HALLAREN (BERNARD)",
   "STREET ADDRESS": "8335 S HONORE ST",
   "ZIP": 60620,
   "NUMBER OF COURTS": 2,
   "LATITUDE": 41.74361067,
   "LONGITUDE": -87.66925589
 },
 {
   "PARK NAME": "BROWN (SIDNEY) MEML.",
   "STREET ADDRESS": "644 E 86TH ST",
   "ZIP": 60619,
   "NUMBER OF COURTS": 2,
   "LATITUDE": 41.73845201,
   "LONGITUDE": -87.60920305
 },
 {
   "PARK NAME": "ROBICHAUX (JOSEPH)",
   "STREET ADDRESS": "9247 S EGGLESTON AVE",
   "ZIP": 60620,
   "NUMBER OF COURTS": 2,
   "LATITUDE": 41.7261887,
   "LONGITUDE": -87.63477019
 },
 {
   "PARK NAME": "HIAWATHA",
   "STREET ADDRESS": "8029 W FOREST PRESERVE AVE",
   "ZIP": 60634,
   "NUMBER OF COURTS": 2,
   "LATITUDE": 41.9441674,
   "LONGITUDE": -87.82730104
 },
 {
   "PARK NAME": "BRANDS",
   "STREET ADDRESS": "3285 N ELSTON AVE",
   "ZIP": 60618,
   "NUMBER OF COURTS": 2,
   "LATITUDE": 41.94099279,
   "LONGITUDE": -87.70050716
 },
 {
   "PARK NAME": "SMITH (JOSEPH HIGGINS)",
   "STREET ADDRESS": "2526 W GRAND AVE",
   "ZIP": 60612,
   "NUMBER OF COURTS": 2,
   "LATITUDE": 41.89168458,
   "LONGITUDE": -87.68983177
 },
 {
   "PARK NAME": "HAMLIN (HANNIBAL)",
   "STREET ADDRESS": "3035 N HOYNE AVE",
   "ZIP": 60618,
   "NUMBER OF COURTS": 2,
   "LATITUDE": 41.93652077,
   "LONGITUDE": -87.68060488
 },
 {
   "PARK NAME": "BELL (GEORGE,JR.)",
   "STREET ADDRESS": "3020 N OAK PARK AVE",
   "ZIP": 60634,
   "NUMBER OF COURTS": 2,
   "LATITUDE": 41.93491519,
   "LONGITUDE": -87.79566872
 },
 {
   "PARK NAME": "KELVYN (WILLIAM)",
   "STREET ADDRESS": "4438 W WRIGHTWOOD AVE",
   "ZIP": 60639,
   "NUMBER OF COURTS": 2,
   "LATITUDE": 41.92870144,
   "LONGITUDE": -87.73771367
 },
 {
   "PARK NAME": "JONQUIL",
   "STREET ADDRESS": "1023 W WRIGHTWOOD AVE",
   "ZIP": 60614,
   "NUMBER OF COURTS": 2,
   "LATITUDE": 41.92893007,
   "LONGITUDE": -87.65427493
 },
 {
   "PARK NAME": "CRAGIN",
   "STREET ADDRESS": "2611 N LOCKWOOD AVE",
   "ZIP": 60639,
   "NUMBER OF COURTS": 2,
   "LATITUDE": 41.92807627,
   "LONGITUDE": -87.7586887
 },
 {
   "PARK NAME": "MANDRAKE (HENRY BROWN)",
   "STREET ADDRESS": "900 E PERSHING RD.",
   "ZIP": 60653,
   "NUMBER OF COURTS": 2,
   "LATITUDE": 41.82435637,
   "LONGITUDE": -87.60512717
 },
 {
   "PARK NAME": "LEGION",
   "STREET ADDRESS": "3100 W BRYN MAWR AVE",
   "ZIP": 60659,
   "NUMBER OF COURTS": 2,
   "LATITUDE": 41.98314724,
   "LONGITUDE": -87.70701938
 },
 {
   "PARK NAME": "ABBOTT (ROBERT)",
   "STREET ADDRESS": "49 E 95TH ST",
   "ZIP": 60628,
   "NUMBER OF COURTS": 2,
   "LATITUDE": 41.72158307,
   "LONGITUDE": -87.62560648
 },
 {
   "PARK NAME": "MINUTEMAN",
   "STREET ADDRESS": "5940 S CENTRAL AVE",
   "ZIP": 60638,
   "NUMBER OF COURTS": 2,
   "LATITUDE": 41.78415876,
   "LONGITUDE": -87.76197446
 },
 {
   "PARK NAME": "NICHOLS (JOHN FOUNTAIN)",
   "STREET ADDRESS": "1342 E 54TH ST",
   "ZIP": 60615,
   "NUMBER OF COURTS": 2,
   "LATITUDE": 41.79806315,
   "LONGITUDE": -87.5930807
 },
 {
   "PARK NAME": "ROGERS (PHILLIP) BEACH",
   "STREET ADDRESS": "7705 N EASTLAKE TERRACE",
   "ZIP": 60626,
   "NUMBER OF COURTS": 2,
   "LATITUDE": 42.0210265,
   "LONGITUDE": -87.66504096
 },
 {
   "PARK NAME": "POTTAWATTOMIE",
   "STREET ADDRESS": "7340 N ROGERS AVE",
   "ZIP": 60626,
   "NUMBER OF COURTS": 2,
   "LATITUDE": 42.01448548,
   "LONGITUDE": -87.67870525
 },
 {
   "PARK NAME": "TOUHY (PATRICK)",
   "STREET ADDRESS": "7348 N PAULINA ST",
   "ZIP": 60626,
   "NUMBER OF COURTS": 2,
   "LATITUDE": 42.01485083,
   "LONGITUDE": -87.67251926
 },
 {
   "PARK NAME": "BROOKS (OSCAR)",
   "STREET ADDRESS": "7046 N HARLEM AVE",
   "ZIP": 60631,
   "NUMBER OF COURTS": 2,
   "LATITUDE": 42.00926432,
   "LONGITUDE": -87.80674834
 },
 {
   "PARK NAME": "LERNER (LEO)",
   "STREET ADDRESS": "7000 N SACRAMENTO AVE",
   "ZIP": 60645,
   "NUMBER OF COURTS": 2,
   "LATITUDE": 42.00837894,
   "LONGITUDE": -87.7045723
 },
 {
   "PARK NAME": "WILDWOOD",
   "STREET ADDRESS": "6950 N HIAWATHA AVE",
   "ZIP": 60646,
   "NUMBER OF COURTS": 2,
   "LATITUDE": 42.00721071,
   "LONGITUDE": -87.77808246
 },
 {
   "PARK NAME": "EMMERSON (LOUIS)",
   "STREET ADDRESS": "1820 W GRANVILLE AVE",
   "ZIP": 60660,
   "NUMBER OF COURTS": 2,
   "LATITUDE": 41.99438413,
   "LONGITUDE": -87.67579532
 },
 {
   "PARK NAME": "ATHLETIC FIELD",
   "STREET ADDRESS": "3546 W ADDISON ST",
   "ZIP": 60618,
   "NUMBER OF COURTS": 2,
   "LATITUDE": 41.94658165,
   "LONGITUDE": -87.71667626
 },
 {
   "PARK NAME": "WINNEMAC",
   "STREET ADDRESS": "5001 N LEAVITT ST",
   "ZIP": 60625,
   "NUMBER OF COURTS": 2,
   "LATITUDE": 41.97233198,
   "LONGITUDE": -87.6840838
 },
 {
   "PARK NAME": "MUNROE",
   "STREET ADDRESS": "2617 W 105TH ST",
   "ZIP": 60655,
   "NUMBER OF COURTS": 2,
   "LATITUDE": 41.70262537,
   "LONGITUDE": -87.6870583
 },
 {
   "PARK NAME": "VITTUM (HARRIET ELIZABETH)",
   "STREET ADDRESS": "5014 W 50TH ST",
   "ZIP": 60638,
   "NUMBER OF COURTS": 2,
   "LATITUDE": 41.80213531,
   "LONGITUDE": -87.74852587
 },
 {
   "PARK NAME": "SHERMAN (JOHN)",
   "STREET ADDRESS": "1307 W 52ND ST",
   "ZIP": 60609,
   "NUMBER OF COURTS": 2,
   "LATITUDE": 41.79953498,
   "LONGITUDE": -87.65761562
 },
 {
   "PARK NAME": "DUNHAM (ROBERT)",
   "STREET ADDRESS": "4640 N MELVINA AVE",
   "ZIP": 60630,
   "NUMBER OF COURTS": 2,
   "LATITUDE": 41.96548601,
   "LONGITUDE": -87.78205498
 },
 {
   "PARK NAME": "CLARENDON COMM. CTR.",
   "STREET ADDRESS": "4501 N CLARENDON AVE",
   "ZIP": 60640,
   "NUMBER OF COURTS": 2,
   "LATITUDE": 41.96368068,
   "LONGITUDE": -87.64989072
 },
 {
   "PARK NAME": "RIDGE",
   "STREET ADDRESS": "9625 S LONGWOOD DR",
   "ZIP": 60643,
   "NUMBER OF COURTS": 2,
   "LATITUDE": 41.71872963,
   "LONGITUDE": -87.66898123
 },
 {
   "PARK NAME": "TRUMBULL (LYMAN)",
   "STREET ADDRESS": "2400 E 105TH ST",
   "ZIP": 60617,
   "NUMBER OF COURTS": 2,
   "LATITUDE": 41.7046413,
   "LONGITUDE": -87.56563479
 },
 {
   "PARK NAME": "ROSEDALE",
   "STREET ADDRESS": "6312 W ROSEDALE AVE",
   "ZIP": 60646,
   "NUMBER OF COURTS": 2,
   "LATITUDE": 41.98848107,
   "LONGITUDE": -87.78576834
 },
 {
   "PARK NAME": "CLEMENTE (ROBERTO)",
   "STREET ADDRESS": "2334 W DIVISION ST",
   "ZIP": 60622,
   "NUMBER OF COURTS": 2,
   "LATITUDE": 41.90309352,
   "LONGITUDE": -87.68544083
 },
 {
   "PARK NAME": "LAKE SHORE",
   "STREET ADDRESS": "254 E CHICAGO AVE",
   "ZIP": 60611,
   "NUMBER OF COURTS": 2,
   "LATITUDE": 41.89684863,
   "LONGITUDE": -87.62118803
 },
 {
   "PARK NAME": "WEST CHATHAM",
   "STREET ADDRESS": "8223 S PRINCETON AVE",
   "ZIP": 60620,
   "NUMBER OF COURTS": 2,
   "LATITUDE": 41.74567091,
   "LONGITUDE": -87.63165382
 },
 {
   "PARK NAME": "JACKSON (MAHALIA)",
   "STREET ADDRESS": "8385 S BIRKHOFF AVE",
   "ZIP": 60620,
   "NUMBER OF COURTS": 2,
   "LATITUDE": 41.74170834,
   "LONGITUDE": -87.63870424
 },
 {
   "PARK NAME": "ARMOUR (PHILIP) SQUARE",
   "STREET ADDRESS": "3309 S SHIELDS AVE",
   "ZIP": 60616,
   "NUMBER OF COURTS": 2,
   "LATITUDE": 41.83438777,
   "LONGITUDE": -87.63513654
 },
 {
   "PARK NAME": "ELLIS (SAMUEL)",
   "STREET ADDRESS": "600 E 37TH ST",
   "ZIP": 60653,
   "NUMBER OF COURTS": 2,
   "LATITUDE": 41.82759248,
   "LONGITUDE": -87.611554
 },
 {
   "PARK NAME": "LE CLAIRE COURTS - HEARST COMM. CTR",
   "STREET ADDRESS": "5116 W 44TH ST",
   "ZIP": 60638,
   "NUMBER OF COURTS": 2,
   "LATITUDE": 41.81305485,
   "LONGITUDE": -87.75137721
 },
 {
   "PARK NAME": "FULLER (MELVILLE)",
   "STREET ADDRESS": "331 W 45TH ST",
   "ZIP": 60609,
   "NUMBER OF COURTS": 2,
   "LATITUDE": 41.8124574,
   "LONGITUDE": -87.63416661
 },
 {
   "PARK NAME": "KENWOOD COMM.",
   "STREET ADDRESS": "1330 E 50TH ST",
   "ZIP": 60615,
   "NUMBER OF COURTS": 2,
   "LATITUDE": 41.80425749,
   "LONGITUDE": -87.59437366
 },
 {
   "PARK NAME": "PASTEUR (LOUIS)",
   "STREET ADDRESS": "5825 S KOSTNER AVE",
   "ZIP": 60629,
   "NUMBER OF COURTS": 2,
   "LATITUDE": 41.78713994,
   "LONGITUDE": -87.7326948
 },
 {
   "PARK NAME": "VALLEY FORGE",
   "STREET ADDRESS": "7001 W 59TH ST",
   "ZIP": 60638,
   "NUMBER OF COURTS": 2,
   "LATITUDE": 41.7847422,
   "LONGITUDE": -87.79617301
 },
 {
   "PARK NAME": "LINDBLOM (ROBERT)",
   "STREET ADDRESS": "6054 S DAMEN AVE",
   "ZIP": 60636,
   "NUMBER OF COURTS": 2,
   "LATITUDE": 41.78381354,
   "LONGITUDE": -87.67409332
 },
 {
   "PARK NAME": "HALE (NATHAN)",
   "STREET ADDRESS": "6140 S MELVINA AVE",
   "ZIP": 60638,
   "NUMBER OF COURTS": 2,
   "LATITUDE": 41.78068716,
   "LONGITUDE": -87.77654378
 },
 {
   "PARK NAME": "ASHE (ARTHUR) BEACH",
   "STREET ADDRESS": "2701 E 74TH ST",
   "ZIP": 60649,
   "NUMBER OF COURTS": 2,
   "LATITUDE": 41.76229373,
   "LONGITUDE": -87.55882583
 },
 {
   "PARK NAME": "BRADLEY (JOSEPHINE)",
   "STREET ADDRESS": "9729 S YATES AVE",
   "ZIP": 60617,
   "NUMBER OF COURTS": 2,
   "LATITUDE": 41.71841289,
   "LONGITUDE": -87.56457023
 },
 {
   "PARK NAME": "EUCLID",
   "STREET ADDRESS": "9800 S PARNELL AVE",
   "ZIP": 60628,
   "NUMBER OF COURTS": 2,
   "LATITUDE": 41.71607793,
   "LONGITUDE": -87.63706013
 },
 {
   "PARK NAME": "KOSCIUSZKO (THADEUZ)",
   "STREET ADDRESS": "2732 N AVERS AVE",
   "ZIP": 60647,
   "NUMBER OF COURTS": 1,
   "LATITUDE": 41.93064293,
   "LONGITUDE": -87.72331906
 },
 {
   "PARK NAME": "GREEN BRIAR",
   "STREET ADDRESS": "2650 W PETERSON AVE",
   "ZIP": 60659,
   "NUMBER OF COURTS": 1,
   "LATITUDE": 41.99052241,
   "LONGITUDE": -87.69604639
 },
 {
   "PARK NAME": "HOLLYWOOD",
   "STREET ADDRESS": "3312 W THORNDALE AVE",
   "ZIP": 60659,
   "NUMBER OF COURTS": 1,
   "LATITUDE": 41.98852157,
   "LONGITUDE": -87.71220311
 },
 {
   "PARK NAME": "SAIN (HARRY)",
   "STREET ADDRESS": "2453 W MONROE ST",
   "ZIP": 60612,
   "NUMBER OF COURTS": 1,
   "LATITUDE": 41.88019227,
   "LONGITUDE": -87.68704714
 },
 {
   "PARK NAME": "SENN (NICHOLAS)",
   "STREET ADDRESS": "5887 N RIDGE AVE",
   "ZIP": 60660,
   "NUMBER OF COURTS": 1,
   "LATITUDE": 41.98895979,
   "LONGITUDE": -87.66866128
 },
 {
   "PARK NAME": "TAYLOR (ROBERT ROCHON)",
   "STREET ADDRESS": "100 W 47TH ST",
   "ZIP": 60609,
   "NUMBER OF COURTS": 1,
   "LATITUDE": 41.80925042,
   "LONGITUDE": -87.62819622
 },
 {
   "PARK NAME": "ARCHER (WILLIAM BEATTY)",
   "STREET ADDRESS": "4901 S KILBOURN AVE",
   "ZIP": 60632,
   "NUMBER OF COURTS": 1,
   "LATITUDE": 41.80399883,
   "LONGITUDE": -87.73562248
 }
]
}
